provider_id,name,nif,email,phone,country,city,address
PR-00001,"Cannon, Gonzalez and Peters",V82405573,ian61@example.org,+34 668105716,España,Sevilla,"2598 Salas Keys
South Joel, FM 01618"
PR-00002,Campos and Sons,P21697211,sean41@example.com,+33 618597472,Francia,Lyon,"224 Thomas Keys Apt. 046
South Timothymouth, NM 92106"
PR-00003,"Stewart, Gregory and Ford",B30456798,ncortez@example.net,+81 609216925,Japón,Yokohama,"PSC 9960, Box 2740
APO AA 13183"
PR-00004,"Peterson, Stephenson and Becker",W53964296,wagnerrandall@example.com,+81 604182319,Japón,Osaka,"7691 Newman Locks Suite 235
North Andrew, AL 82195"
PR-00005,Harris-Cole,J58797274,timothybrown@example.com,+39 625861351,Italia,Nápoles,"264 Day Manor
Erinside, AK 60549"
PR-00006,Fuentes-Phillips,C23889552,johnnythompson@example.org,+81 605968417,Japón,Yokohama,"71208 Sharp Points
Davidville, MO 10817"
PR-00007,Hall Group,H59714141,calvinestrada@example.net,+52 616258111,México,Cancún,"61436 Jackson Plaza
Jonestown, SD 43518"
PR-00008,Johnson-Richards,A82176924,juanchen@example.net,+7 664417201,Rusia,Nizhni Nóvgorod,"221 Harris Way
North Eric, VI 60768"
PR-00009,Key Ltd,D52738890,aaron77@example.org,+33 672691190,Francia,Marsella,"7588 Torres Mountain
Lake Sarahfort, OR 68231"
PR-00010,Meadows-Jones,H95436301,mbowen@example.net,+81 663926066,Japón,Tokio,"683 Smith Dale Apt. 118
Lake Kelly, MT 22184"
PR-00011,"Luna, Huffman and Smith",D58233344,jacqueline33@example.org,+49 649730015,Alemania,Berlín,"766 Jason Port
Jerrymouth, NM 10239"
PR-00012,Wright-Ortega,N51161609,mariaanderson@example.com,+34 606601331,España,Madrid,"324 Derrick Port Apt. 449
Nicholasmouth, CA 94225"
PR-00013,"Simpson, Brown and Walker",R13734527,michaela03@example.org,+33 655267114,Francia,Lyon,"340 Torres Forest
New Melissa, VI 17858"
PR-00014,Palmer PLC,S47751561,erica32@example.com,+52 626008979,México,Ciudad de México,"982 Hannah Lodge Suite 506
Melodyville, ND 25073"
PR-00015,Gould LLC,W66772297,kevinvargas@example.com,+34 615589250,España,Valencia,"3545 Brooke Walks Apt. 476
Lake Maria, NM 79640"
PR-00016,Graham Inc,D30076768,sharon85@example.com,+81 686409352,Japón,Tokio,"621 Debbie Common
West Joannaland, VI 04362"
PR-00017,"Horne, Gonzalez and Bowman",C32555734,xstafford@example.net,+52 650312257,México,Cancún,"815 Stafford Point Apt. 777
Port Lisaview, KS 70064"
PR-00018,Melton-Hoffman,N63267355,christine81@example.com,+58 697454630,Venezuela,Valencia,"016 Nicole Creek Apt. 640
Deanstad, ME 91083"
PR-00019,Mccullough LLC,U65117855,samanthalowe@example.net,+39 634044459,Italia,Roma,"940 Cook Ranch Suite 445
Lake Emilybury, MO 49338"
PR-00020,"Williamson, King and Webb",F94667903,robertmoore@example.net,+39 659248478,Italia,Roma,"706 Gonzalez Lodge
Lake Daniel, CA 77000"
PR-00021,"Cruz, Dickson and King",P48887525,stephen50@example.net,+49 617988999,Alemania,Hamburgo,"4934 Pham Union
Lake Michelle, NE 38562"
PR-00022,Edwards Inc,P12543250,roy97@example.com,+81 657292016,Japón,Yokohama,"61699 Cuevas Point
Port Sarabury, AL 97757"
PR-00023,Greer Group,U41813486,michael91@example.net,+52 674736175,México,Guadalajara,"827 Davis Point
Brettland, ID 92799"
PR-00024,Howard-Lozano,E98577743,rebecca95@example.com,+1 624630435,Estados Unidos,Chicago,"PSC 2374, Box 8540
APO AA 39541"
PR-00025,"Vazquez, Andrews and Robinson",P49789575,jacobgregory@example.org,+39 622300408,Italia,Nápoles,"444 Braun Lights Apt. 119
Prestontown, ME 59772"
PR-00026,"Mccoy, Anderson and White",V49959276,april12@example.org,+34 623307997,España,Valencia,"3098 Jill Mission Suite 119
Collierview, HI 16969"
PR-00027,Bryant-Munoz,R23474895,katrinajohnson@example.org,+58 622210608,Venezuela,Caracas,"187 Baldwin Roads
Lake Anna, AL 32248"
PR-00028,"Collins, Baker and Khan",V42173074,whitakerdarin@example.net,+1 656152958,Dominican Republic,Santo Domingo,"430 Smith Parkway Suite 670
Davidsonshire, IA 36334"
PR-00029,Warren-Barron,D38259367,gjimenez@example.net,+1 660832749,Dominican Republic,La Romana,"747 Hall Flats
Riceberg, WY 17550"
PR-00030,Scott-Ware,E90553528,franciscogreen@example.com,+33 636532607,Francia,Toulouse,"0596 Valdez Bypass Suite 861
West Saraside, NV 69013"
PR-00031,"Garcia, Robertson and Stone",A75338975,xmejia@example.net,+81 650927264,Japón,Yokohama,"700 Jennifer Shores
South Erikchester, GU 95392"
PR-00032,"Clark, Johnson and Ray",Q52686975,morsejohn@example.com,+33 616685987,Francia,Lyon,"76995 Terry Ports Suite 133
Russellfurt, IL 53962"
PR-00033,"Bowers, Marshall and Hurst",J91781163,santiagobrenda@example.com,+58 608081794,Venezuela,Barquisimeto,"5367 John Springs
Port Jennaview, GU 86685"
PR-00034,Morgan-Miller,V89702349,joseph28@example.net,+52 635780748,México,Cancún,"011 Martha Way
Torresfurt, FL 85001"
PR-00035,Hunter-Cochran,R37498419,chenjoseph@example.org,+58 654895078,Venezuela,Barquisimeto,"75394 Taylor Village
New David, MH 52248"
PR-00036,Daniel-Molina,V58362598,robert99@example.com,+49 651319639,Alemania,Berlín,"37461 Graham Oval Apt. 619
Perryberg, AL 27759"
PR-00037,Evans-Clayton,P17752005,xjohnston@example.com,+33 646676486,Francia,Lyon,"933 Holland Light Apt. 099
North Edward, AR 31476"
PR-00038,Buck PLC,S35922956,robert24@example.org,+58 672532405,Venezuela,Valencia,"247 Wolfe Pike
East Allison, SC 04818"
PR-00039,"Parks, Wood and Paul",D65081485,watsonlori@example.com,+52 690059487,México,Guadalajara,"14457 Austin Prairie
Lake Melissaport, MH 87090"
PR-00040,Robinson-Perez,F98827513,beltrandavid@example.com,+52 604058959,México,Guadalajara,"2692 Blevins Pine
East Kennethfort, CO 51375"
PR-00041,"Malone, Smith and Montgomery",V14982437,wvillegas@example.net,+52 633907816,México,Monterrey,"7092 Davis Circles
Tuckertown, LA 48786"
PR-00042,Guerra-Berry,W15353314,wcruz@example.org,+58 646317436,Venezuela,Maracaibo,"644 Hughes Rapid
North Kylebury, GA 54781"
PR-00043,"Humphrey, Castillo and West",S72542906,qmiller@example.net,+52 605002304,México,Monterrey,"6643 Anthony Spurs
Duartefort, NJ 10995"
PR-00044,Proctor Ltd,W54301522,cassandrahill@example.org,+1 665336312,Dominican Republic,Santo Domingo,"46669 Maria Stream
Lake Benjamin, AS 19877"
PR-00045,Martinez-Jones,U50209311,burgesstodd@example.com,+1 609179399,Dominican Republic,La Romana,"0086 Nelson Bypass
Travismouth, DE 05749"
PR-00046,Shelton-Schroeder,V89367722,larsonemily@example.com,+7 636205477,Rusia,Moscú,"2985 Jackson Union Apt. 000
North Colin, IN 54738"
PR-00047,Brown-Orr,N81914084,natalie71@example.org,+1 609581728,Dominican Republic,Santiago de los Caballeros,"USS Marshall
FPO AE 26096"
PR-00048,"Kent, Joyce and Oliver",G89695706,igarcia@example.com,+33 631292342,Francia,Lyon,"332 Christina Knoll Apt. 448
Parkerstad, AK 94323"
PR-00049,Alexander Group,G91900143,daniel21@example.org,+1 604835960,Canadá,Toronto,"24215 Campbell Trace Suite 837
Sarahfort, VA 83457"
PR-00050,"Reynolds, Herrera and Smith",J61574304,edickson@example.net,+49 603754499,Alemania,Hamburgo,"406 Pamela Square
Heatherview, NC 07215"
PR-00051,"Mills, Wells and Evans",V60589400,eric41@example.net,+58 693516012,Venezuela,Maracaibo,"60841 Hansen Skyway
Chavezborough, CT 94776"
PR-00052,Thompson-Smith,J39261660,phicks@example.net,+1 646910100,Canadá,Vancouver,"30218 Burns Track Suite 496
Port Frankville, MS 80831"
PR-00053,Edwards-Perez,U68119759,mistyharris@example.org,+49 697393856,Alemania,Hamburgo,"51411 Clarke Falls Apt. 940
Doughertymouth, PA 47623"
PR-00054,Rodriguez Group,R34273278,christopher55@example.org,+49 658321260,Alemania,Múnich,"259 Julia Ridges Apt. 470
South Lisaburgh, OH 08221"
PR-00055,Monroe-Hernandez,C65365083,jonesamanda@example.org,+58 663571344,Venezuela,Maracaibo,"81270 Charles Grove Apt. 521
Richstad, MS 56581"
PR-00056,Cook PLC,A10009861,becklisa@example.net,+49 637429983,Alemania,Berlín,"098 Lee Street Apt. 910
Noahview, GU 63428"
PR-00057,Schmitt-Foster,C85671844,vincentcole@example.org,+34 675296480,España,Sevilla,"263 Christopher Road Apt. 826
Port Jamesville, MO 90193"
PR-00058,"Henderson, Bauer and Porter",U28445904,chavezteresa@example.net,+1 623732802,Canadá,Calgary,"383 Cole Valley Suite 456
Corymouth, NV 32970"
PR-00059,Kirk Ltd,W94489219,bennetttracy@example.com,+58 629325213,Venezuela,Valencia,"4337 Smith Lake
Kingberg, MS 66501"
PR-00060,"Webster, Meyer and Crawford",C61419491,rebeccachristensen@example.org,+1 689277937,Estados Unidos,Nueva York,"210 James Views Apt. 447
Susanhaven, MP 23067"
PR-00061,Bird Ltd,J64457382,tayloreric@example.com,+1 661856742,Dominican Republic,Santiago de los Caballeros,"2052 Marcus Shore Suite 022
Evansborough, MT 98708"
PR-00062,Hamilton Ltd,D97966642,victoria29@example.org,+34 601940225,España,Barcelona,"72242 Whitaker Flats
West Justinfurt, NV 72828"
PR-00063,Carter Ltd,U32709859,heatherferguson@example.com,+34 690618215,España,Sevilla,"4985 Maria Islands Apt. 179
Lake Morgan, NM 80570"
PR-00064,Graham PLC,J90854052,lisa74@example.net,+33 677084448,Francia,Toulouse,"95712 Beth Crossroad
New Ashley, MS 25397"
PR-00065,"Becker, Figueroa and Adams",Q46185536,dperez@example.net,+7 621255311,Rusia,San Petersburgo,"096 Dorsey Trace Apt. 138
Kathleenland, WV 11461"
PR-00066,Hamilton Group,W49330173,davidmorris@example.net,+1 685198334,Estados Unidos,Los Ángeles,"USNS Stewart
FPO AE 09873"
PR-00067,Burton Group,G14887865,brittneyfischer@example.net,+7 620528480,Rusia,Nizhni Nóvgorod,"USNV Barber
FPO AA 16858"
PR-00068,Black PLC,G79030747,nicholasvelasquez@example.net,+52 616947127,México,Guadalajara,"0623 Amber Circle
Johnport, IN 57680"
PR-00069,"Banks, Sloan and Burke",F32033715,susan06@example.org,+49 646674016,Alemania,Fráncfort,"56511 Johnny Roads Apt. 117
Dixonchester, MD 02621"
PR-00070,"Shea, Hansen and Roberts",B98803807,xjackson@example.org,+1 632135503,Estados Unidos,Chicago,"31344 Burgess Ports
West Daniellemouth, HI 91087"
PR-00071,Cole-Bradford,U24326315,nthomas@example.org,+1 636071684,Dominican Republic,Santo Domingo,"77364 Ralph Villages
Howardshire, NV 88837"
PR-00072,Gibbs-Ruiz,H14272852,kathleen13@example.com,+1 651047066,Canadá,Montreal,"3560 Washington Pine Suite 757
Armstrongfort, OH 95462"
PR-00073,"Jennings, Oliver and Guzman",H29630805,calebwise@example.org,+34 697906540,España,Sevilla,"1732 Leslie Orchard
West Erinbury, RI 01225"
PR-00074,Stephens Inc,R32525853,garciajulia@example.net,+34 623889615,España,Sevilla,"7501 Newton Course
North Christinabury, CO 06595"
PR-00075,Smith Inc,G85769971,jatkinson@example.com,+1 650741394,Dominican Republic,Punta Cana,"695 Beth Curve Apt. 736
Jamesburgh, AS 93984"
PR-00076,Jones Group,B15287000,nbernard@example.com,+33 624380511,Francia,Marsella,"36765 Carter Brooks Apt. 717
Jessicaland, AL 37437"
PR-00077,Johnson-Lee,H42842044,brittany44@example.net,+1 638072644,Estados Unidos,Nueva York,"501 Destiny Cliff
Terribury, MT 52963"
PR-00078,Huang-Morris,S87400166,cruzandrew@example.net,+1 613411067,Dominican Republic,La Romana,"USNS Arias
FPO AP 54719"
PR-00079,Reynolds Group,N14188342,wpage@example.net,+1 668527398,Canadá,Calgary,"USS Hill
FPO AA 36030"
PR-00080,Miller LLC,C30855539,qmartin@example.net,+58 610168134,Venezuela,Caracas,"121 Pacheco Underpass
Patriciashire, ID 27449"
PR-00081,"Roach, Davis and Wilkins",G15245018,whenry@example.net,+52 628167527,México,Guadalajara,"1746 Wanda Island Suite 225
North Erinstad, AZ 56735"
PR-00082,Mahoney PLC,W70882451,andersonderrick@example.net,+1 680326235,Canadá,Toronto,"PSC 0581, Box 0301
APO AA 92435"
PR-00083,Brown-Alexander,R48573020,hardyjohn@example.com,+58 614988530,Venezuela,Caracas,"Unit 6496 Box 6317
DPO AE 27174"
PR-00084,Porter PLC,B28910355,scott71@example.com,+58 656562372,Venezuela,Caracas,"7099 Jennifer Villages Suite 798
Susanborough, NM 72363"
PR-00085,"Mercer, Williams and Taylor",D76556563,katrina93@example.com,+1 616999919,Dominican Republic,La Romana,"09280 James Mountain
West Randymouth, SD 95301"
PR-00086,Rodriguez Ltd,F89692368,justin78@example.net,+33 652811298,Francia,París,"5065 Calderon Extensions
Anneton, VT 75645"
PR-00087,"White, Marsh and Osborn",U21206501,jennifer29@example.net,+81 693266344,Japón,Tokio,"057 Thomas Trafficway Apt. 544
Dixonhaven, WY 23165"
PR-00088,Whitehead Ltd,B33810559,laura30@example.org,+7 628700883,Rusia,Nizhni Nóvgorod,"70188 Kristin Island Suite 429
Lake Dennis, NH 90635"
PR-00089,Doyle-Rubio,V80716419,juliebrewer@example.org,+34 642188453,España,Valencia,"2835 Houston Creek Apt. 362
New Joshuabury, MT 44680"
PR-00090,Kim-Gomez,S64705587,iknox@example.org,+34 634540848,España,Madrid,"0130 Krista Meadow Suite 995
Lake Kellyfurt, VI 96766"
PR-00091,"Riddle, Martinez and Horne",S12519059,royfrederick@example.net,+33 612193708,Francia,Toulouse,"95006 Baxter Points Suite 993
Anthonyland, KS 60820"
PR-00092,"Roberts, Richards and Franklin",U21565521,michael50@example.org,+34 661748570,España,Valencia,"77765 Hatfield Courts Suite 351
Dunnville, NC 95145"
PR-00093,Garcia LLC,V22124287,ramostanya@example.org,+34 659126619,España,Valencia,"07995 Anderson Junctions
Williamsburgh, LA 33717"
PR-00094,"Williams, Garner and Mitchell",U61526369,onealvalerie@example.net,+1 681482307,Dominican Republic,Punta Cana,"783 Smith Divide
Weaverland, TN 37001"
PR-00095,Ruiz Group,N86130457,carrie92@example.net,+7 668668360,Rusia,Ekaterimburgo,"152 Kevin Estates Apt. 699
South Robertport, SC 68129"
PR-00096,Chen and Sons,J81217125,greenmichael@example.com,+58 647492037,Venezuela,Valencia,"566 Adams Garden Apt. 005
Yorkmouth, AR 70140"
PR-00097,Davis and Sons,S94918487,seth48@example.com,+1 685775298,Canadá,Montreal,"950 Jason Land Apt. 443
North Timothy, PA 20560"
PR-00098,"Acosta, Evans and Little",B99935007,dpatterson@example.com,+58 607031373,Venezuela,Barquisimeto,"875 Morris Ville
North Leon, ND 67458"
PR-00099,"Singh, Howard and Mooney",C94391002,pamela07@example.com,+52 678669883,México,Ciudad de México,"85648 Nelson Parks Suite 255
North Lisa, WY 74528"
PR-00100,Hurst-Parks,S27832243,amandamoore@example.net,+34 651822553,España,Sevilla,"2004 Jeff Ridges
New Maryton, MH 01271"
